STARLINK-1434_new
1 15712C 20035BH  21326.12465117 -.00015933  00000-0 -10674-2 0  3267
2 15712  53.0536 238.1891 0002057  69.5959  39.0584 15.06419616    11
STARLINK-1434_old
1 25712C 20035BH  21325.13530178  .00008874  00000-0  59450-3 0  3256
2 25712  53.0535 242.6303 0002022  69.3001  71.0942 15.06392323    15
